{
    "links": {
        "self": "http://www.neowsapp.com/rest/v1/neo/3626612?api_key=iIulBulltgU6a56xZRHN4H3l9WmuAYTsLGpBGhQ2"
    },
    "id": "3626612",
    "neo_reference_id": "3626612",
    "name": "(2013 CT83)",
    "designation": "2013 CT83",
    "nasa_jpl_url": "http://ssd.jpl.nasa.gov/sbdb.cgi?sstr=3626612",
    "absolute_magnitude_h": 21.2,
    "estimated_diameter": {
        "kilometers": {
            "estimated_diameter_min": 0.1529519353,
            "estimated_diameter_max": 0.3420109247
        },
        "meters": {
            "estimated_diameter_min": 152.9519353442,
            "estimated_diameter_max": 342.0109247198
        },
        "miles": {
            "estimated_diameter_min": 0.095039897,
            "estimated_diameter_max": 0.2125156703
        },
        "feet": {
            "estimated_diameter_min": 501.8108275547,
            "estimated_diameter_max": 1122.0831222578
        }
    },
    "is_potentially_hazardous_asteroid": false,
    "close_approach_data": [
        {
            "close_approach_date": "1989-12-14",
            "close_approach_date_full": "1989-Dec-14 01:49",
            "epoch_date_close_approach": 629603340000,
            "relative_velocity": {
                "kilometers_per_second": "5.3830703095",
                "kilometers_per_hour": "19379.0531143113",
                "miles_per_hour": "12041.3899753897"
            },
            "miss_distance": {
                "astronomical": "0.274203635",
                "lunar": "106.665214015",
                "kilometers": "41020279.74225745",
                "miles": "25488819.89955481"
            },
            "orbiting_body": "Earth"
        },
        {
            "close_approach_date": "2007-04-09",
            "close_approach_date_full": "2007-Apr-09 05:01",
            "epoch_date_close_approach": 1176094860000,
            "relative_velocity": {
                "kilometers_per_second": "2.2604355378",
                "kilometers_per_hour": "8137.5679361682",
                "miles_per_hour": "5056.3682545596"
            },
            "miss_distance": {
                "astronomical": "1.812117858",
                "lunar": "704.913846762",
                "kilometers": "271088971.74576246",
                "miles": "168446876.057383548"
            },
            "orbiting_body": "Juptr"
        },
        {
            "close_approach_date": "2012-12-15",
            "close_approach_date_full": "2012-Dec-15 22:00",
            "epoch_date_close_approach": 1355608800000,
            "relative_velocity": {
                "kilometers_per_second": "5.4645685552",
                "kilometers_per_hour": "19672.4467986777",
                "miles_per_hour": "12223.6934011006"
            },
            "miss_distance": {
                "astronomical": "0.2813463894",
                "lunar": "109.4437454766",
                "kilometers": "42088820.586430578",
                "miles": "26152780.3918668564"
            },
            "orbiting_body": "Earth"
        },
        {
            "close_approach_date": "2092-12-16",
            "close_approach_date_full": "2092-Dec-16 22:47",
            "epoch_date_close_approach": 3880306020000,
            "relative_velocity": {
                "kilometers_per_second": "6.4615254017",
                "kilometers_per_hour": "23261.4914459852",
                "miles_per_hour": "14453.786170979"
            },
            "miss_distance": {
                "astronomical": "0.2663453959",
                "lunar": "103.6083590051",
                "kilometers": "39844703.910946733",
                "miles": "24758350.9502735954"
            },
            "orbiting_body": "Earth"
        }
    ],
    "orbital_data": {
        "orbit_id": "7",
        "orbit_determination_date": "2020-07-19 06:37:57",
        "first_observation_date": "2013-01-21",
        "last_observation_date": "2013-02-16",
        "data_arc_in_days": 26,
        "observations_used": 27,
        "orbit_uncertainty": "7",
        "minimum_orbit_intersection": ".265664",
        "jupiter_tisserand_invariant": "3.270",
        "epoch_osculation": "2459000.5",
        "eccentricity": ".5252549785956219",
        "semi_major_axis": "2.443231353551786",
        "inclination": "12.15375768704142",
        "ascending_node_longitude": "137.7894578033576",
        "orbital_period": "1394.907201219843",
        "perihelion_distance": "1.15991192123779",
        "perihelion_argument": "289.9747623102015",
        "aphelion_distance": "3.726550785865781",
        "perihelion_time": "2459055.048856001814",
        "mean_anomaly": "345.9219393637943",
        "mean_motion": ".2580816843480203",
        "equinox": "J2000",
        "orbit_class": {
            "orbit_class_type": "AMO",
            "orbit_class_description": "Near-Earth asteroid orbits similar to that of 1221 Amor",
            "orbit_class_range": "1.017 AU < q (perihelion) < 1.3 AU"
        }
    },
    "is_sentry_object": false
}